MMS 2                   
1 40483U 15011B   24273.91667824 -.00001710  00000+0  00000+0 0  9996
2 40483  54.1659   4.4863 9002919 152.1051  42.4666  0.28449171  1309
